NORAD_CAT_ID,OBJECT_NAME,OBJECT_TYPE,EPOCH,MEAN_MOTION,ECCENTRICITY,INCLINATION,RA_OF_ASC_NODE,ARG_OF_PERICENTER,MEAN_ANOMALY,BSTAR,MEAN_MOTION_DOT,MEAN_MOTION_DDOT,TLE_LINE0,TLE_LINE1,TLE_LINE2,SEMIMAJOR_AXIS,PERIOD,APOGEE,PERIGEE,DECAYED
50170.0,STARLINK-3245,PAYLOAD,2023-04-06 01:14:22,15.08845754,0.0001134,53.2161,6.4194,98.858,261.254,0.00029241,4.37e-05,0.0,0 STARLINK-3245,1 50170U 21125Q   23096.05165055  .00004370  00000-0  29241-3 0  9996,2 50170  53.2161   6.4194 0001134  98.8580 261.2540 15.08845754 75261,6917.863,95.437,540.512,538.943,0.0
50170.0,STARLINK-3245,PAYLOAD,2023-04-06 18:43:37,15.08840375,0.0001157,53.2165,3.1481,79.1206,280.9917,0.00015119,2.119e-05,0.0,0 STARLINK-3245,1 50170U 21125Q   23096.78029445  .00002119  00000-0  15119-3 0  9996,2 50170  53.2165   3.1481 0001157  79.1206 280.9917 15.08840375 74898,6917.879,95.438,540.545,538.944,0.0
50170.0,STARLINK-3245,PAYLOAD,2023-04-07 02:40:33,15.08842178,0.0001026,53.2161,1.6619,79.3013,280.8095,0.00015196,2.132e-05,0.0,0 STARLINK-3245,1 50170U 21125Q   23097.11149338  .00002132  00000-0  15196-3 0  9998,2 50170  53.2161   1.6619 0001026  79.3013 280.8095 15.08842178 75422,6917.874,95.437,540.449,539.029,0.0
50170.0,STARLINK-3245,PAYLOAD,2023-04-08 02:31:19,15.08852325,0.0001138,53.2165,357.2021,91.5936,268.5187,0.00028454,4.245e-05,0.0,0 STARLINK-3245,1 50170U 21125Q   23098.10508936  .00004245  00000-0  28454-3 0  9999,2 50170  53.2165 357.2021 0001138  91.5936 268.5187 15.08852325 75090,6917.843,95.437,540.495,538.92,0.0
50170.0,STARLINK-3245,PAYLOAD,2023-04-08 16:49:48,15.08837081,0.0001308,53.2162,354.5258,76.1743,283.9395,4.6879e-05,4.58e-06,0.0,0 STARLINK-3245,1 50170U 21125Q   23098.70125793  .00000458  00000-0  46879-4 0  9995,2 50170  53.2162 354.5258 0001308  76.1743 283.9395 15.08837081 75187,6917.889,95.438,540.659,538.849,0.0
50170.0,STARLINK-3245,PAYLOAD,2023-04-09 02:22:07,15.08838582,0.0001377,53.2161,352.7416,76.3829,283.7316,8.7585e-05,1.106e-05,0.0,0 STARLINK-3245,1 50170U 21125Q   23099.09869863  .00001106  00000-0  87585-4 0  9991,2 50170  53.2161 352.7416 0001377  76.3829 283.7316 15.08838582 75723,6917.885,95.438,540.702,538.797,0.0
50170.0,STARLINK-3245,PAYLOAD,2023-04-09 16:40:35,15.08839499,0.0001331,53.2159,350.0649,81.0024,279.1118,7.574e-05,9.18e-06,0.0,0 STARLINK-3245,1 50170U 21125Q   23099.69485955  .00000918  00000-0  75740-4 0  9993,2 50170  53.2159 350.0649 0001331  81.0024 279.1118 15.08839499 75816,6917.882,95.438,540.668,538.826,0.0
50170.0,STARLINK-3245,PAYLOAD,2023-04-10 03:48:17,15.08854563,0.0001389,53.2158,347.9834,87.8262,272.2889,0.00039938,6.076e-05,0.0,0 STARLINK-3245,1 50170U 21125Q   23100.15853384  .00006076  00000-0  39938-3 0  9991,2 50170  53.2158 347.9834 0001389  87.8262 272.2889 15.08854563 75400,6917.836,95.437,540.662,538.74,0.0
50170.0,STARLINK-3245,PAYLOAD,2023-04-10 16:31:22,15.08848018,0.0001623,53.2154,345.6048,98.1887,261.9289,0.00030285,4.536e-05,0.0,0 STARLINK-3245,1 50170U 21125Q   23100.68845640  .00004536  00000-0  30285-3 0  9990,2 50170  53.2154 345.6048 0001623  98.1887 261.9289 15.08848018 75482,6917.856,95.437,540.844,538.598,0.0
50170.0,STARLINK-3245,PAYLOAD,2023-04-11 02:03:40,15.08860049,0.0001496,53.2161,343.8214,91.2949,268.8214,0.00046203,7.077e-05,0.0,0 STARLINK-3245,1 50170U 21125Q   23101.08589057  .00007077  00000-0  46203-3 0  9992,2 50170  53.2161 343.8214 0001496  91.2949 268.8214 15.08860049 76029,6917.819,95.436,540.719,538.649,0.0
50170.0,STARLINK-3245,PAYLOAD,2023-04-11 16:22:09,15.08839246,0.0001332,53.217,341.1439,101.1337,258.9805,4.6189e-06,-2.14e-06,0.0,0 STARLINK-3245,1 50170U 21125Q   23101.68205521 -.00000214  00000-0  46189-5 0  9991,2 50170  53.2170 341.1439 0001332 101.1337 258.9805 15.08839246 75637,6917.883,95.438,540.669,538.826,0.0
50170.0,STARLINK-3245,PAYLOAD,2023-04-12 01:54:28,15.08843877,0.0001099,53.2167,339.3602,91.2176,268.8942,0.00037382,5.667e-05,0.0,0 STARLINK-3245,1 50170U 21125Q   23102.07949634  .00005667  00000-0  37382-3 0  9994,2 50170  53.2167 339.3602 0001099  91.2176 268.8942 15.08843877 76171,6917.869,95.437,540.494,538.973,0.0
50170.0,STARLINK-3245,PAYLOAD,2023-04-12 16:12:57,15.08834589,0.0001119,53.2162,336.6842,92.0685,268.0435,0.00025299,3.74e-05,0.0,0 STARLINK-3245,1 50170U 21125Q   23102.67566098  .00003740  00000-0  25299-3 0  9993,2 50170  53.2162 336.6842 0001119  92.0685 268.0435 15.08834589 75784,6917.897,95.438,540.536,538.988,0.0
50170.0,STARLINK-3245,PAYLOAD,2023-04-13 01:45:15,15.08842342,0.00011,53.2161,334.8999,90.7985,269.3133,0.00037641,5.708e-05,0.0,0 STARLINK-3245,1 50170U 21125Q   23103.07310006  .00005708  00000-0  37641-3 0  9994,2 50170  53.2161 334.8999 0001100  90.7985 269.3133 15.08842342 76320,6917.873,95.437,540.499,538.977,0.0
50170.0,STARLINK-3245,PAYLOAD,2023-04-13 20:49:53,15.08841791,0.0001112,53.2165,331.3312,89.7318,270.3802,0.00037286,5.651e-05,0.0,0 STARLINK-3245,1 50170U 21125Q   23103.86798118  .00005651  00000-0  37286-3 0  9997,2 50170  53.2165 331.3312 0001112  89.7318 270.3802 15.08841791 75967,6917.875,95.437,540.509,538.971,0.0
50170.0,STARLINK-3245,PAYLOAD,2023-04-14 00:00:39,15.08848845,8.78e-05,53.2168,330.7363,85.1684,274.9408,0.00031112,4.668e-05,0.0,0 STARLINK-3245,1 50170U 21125Q   23104.00045716  .00004668  00000-0  31112-3 0  9992,2 50170  53.2168 330.7363 0000878  85.1684 274.9408 15.08848845 76468,6917.853,95.437,540.326,539.111,0.0
50170.0,STARLINK-3245,PAYLOAD,2023-04-15 14:09:55,15.08840882,0.0001128,53.2154,323.6,79.2968,280.8151,0.00018086,2.592e-05,0.0,0 STARLINK-3245,1 50170U 21125Q   23105.59022243  .00002592  00000-0  18086-3 0  9996,2 50170  53.2154 323.6000 0001128  79.2968 280.8151 15.08840882 76701,6917.878,95.437,540.523,538.962,0.0
50170.0,STARLINK-3245,PAYLOAD,2023-04-15 20:31:27,15.088445,9.47e-05,53.2158,322.4103,100.2832,259.8267,0.00024322,3.586e-05,0.0,0 STARLINK-3245,1 50170U 21125Q   23105.85517964  .00003586  00000-0  24322-3 0  9998,2 50170  53.2158 322.4103 0000947 100.2832 259.8267 15.08844500 76748,6917.867,95.437,540.387,539.077,0.0
50170.0,STARLINK-3245,PAYLOAD,2023-04-15 23:42:13,15.08850112,9.19e-05,53.2159,321.8153,96.8779,263.2318,0.00067132,0.00010415,0.0,0 STARLINK-3245,1 50170U 21125Q   23105.98765987  .00010415  00000-0  67132-3 0  9997,2 50170  53.2159 321.8153 0000919  96.8779 263.2318 15.08850112 76287,6917.849,95.437,540.35,539.079,0.0
50170.0,STARLINK-3245,PAYLOAD,2023-04-16 20:22:14,15.08844934,9.34e-05,53.2155,317.9496,109.7184,250.3909,0.0004136,6.302e-05,0.0,0 STARLINK-3245,1 50170U 21125Q   23106.84878282  .00006302  00000-0  41360-3 0  9991,2 50170  53.2155 317.9496 0000934 109.7184 250.3909 15.08844934 76895,6917.865,95.437,540.376,539.084,0.0
50170.0,STARLINK-3245,PAYLOAD,2023-04-16 23:33:01,15.08850837,0.0001005,53.2158,317.3549,106.4801,253.6302,0.00064442,9.986e-05,0.0,0 STARLINK-3245,1 50170U 21125Q   23106.98126179  .00009986  00000-0  64442-3 0  9994,2 50170  53.2158 317.3549 0001005 106.4801 253.6302 15.08850837 76916,6917.847,95.437,540.408,539.017,0.0
50170.0,STARLINK-3245,PAYLOAD,2023-04-17 20:13:02,15.08842331,0.0001062,53.2158,313.4891,100.0161,260.0951,0.00042389,6.465e-05,0.0,0 STARLINK-3245,1 50170U 21125Q   23107.84238558  .00006465  00000-0  42389-3 0  9990,2 50170  53.2158 313.4891 0001062 100.0161 260.0951 15.08842331 77042,6917.873,95.437,540.473,539.004,0.0
50170.0,STARLINK-3245,PAYLOAD,2023-04-18 00:59:11,15.08850908,0.0001075,53.2158,312.5966,97.8998,262.2116,0.00041175,6.273e-05,0.0,0 STARLINK-3245,1 50170U 21125Q   23108.04110242  .00006273  00000-0  41175-3 0  9991,2 50170  53.2158 312.5966 0001075  97.8998 262.2116 15.08850908 77079,6917.847,95.437,540.456,538.968,0.0
50170.0,STARLINK-3245,PAYLOAD,2023-04-18 20:03:49,15.08845408,0.0001056,53.2159,309.0294,91.512,268.5993,0.00019736,2.855e-05,0.0,0 STARLINK-3245,1 50170U 21125Q   23108.83598477  .00002855  00000-0  19736-3 0  9998,2 50170  53.2159 309.0294 0001056  91.5120 268.5993 15.08845408 77196,6917.864,95.437,540.459,538.998,0.0
50170.0,STARLINK-3245,PAYLOAD,2023-04-19 13:33:03,15.08842702,0.0001084,53.2162,305.758,83.1082,277.0034,0.00014643,2.044e-05,0.0,0 STARLINK-3245,1 50170U 21125Q   23109.56462709  .00002044  00000-0  14643-3 0  9999,2 50170  53.2162 305.7580 0001084  83.1082 277.0034 15.08842702 76820,6917.872,95.437,540.487,538.987,0.0
50170.0,STARLINK-3245,PAYLOAD,2023-04-19 19:54:35,15.08855574,9.37e-05,53.2151,304.5687,85.9649,274.145,0.00045246,6.923e-05,0.0,0 STARLINK-3245,1 50170U 21125Q   23109.82958138  .00006923  00000-0  45246-3 0  9997,2 50170  53.2151 304.5687 0000937  85.9649 274.1450 15.08855574 77347,6917.833,95.437,540.346,539.05,0.0
50170.0,STARLINK-3245,PAYLOAD,2023-04-20 11:48:27,15.08847959,0.000171,53.2157,301.595,91.4359,268.6829,0.00016887,2.401e-05,0.0,0 STARLINK-3245,1 50170U 21125Q   23110.49198551  .00002401  00000-0  16887-3 0  9993,2 50170  53.2157 301.5950 0001710  91.4359 268.6829 15.08847959 77440,6917.856,95.437,540.904,538.538,0.0
50170.0,STARLINK-3245,PAYLOAD,2023-04-20 19:45:23,15.08838494,0.0001867,53.2161,300.1068,93.0004,267.1201,-6.5443e-06,-3.92e-06,0.0,0 STARLINK-3245,1 50170U 21125Q   23110.82318643 -.00000392  00000-0 -65443-5 0  9999,2 50170  53.2161 300.1068 0001867  93.0004 267.1201 15.08838494 77495,6917.885,95.438,541.042,538.458,0.0
50170.0,STARLINK-3245,PAYLOAD,2023-04-21 05:17:42,15.0883454,0.0001304,53.2161,298.3242,99.0726,261.0414,-3.2581e-06,-3.4e-06,0.0,0 STARLINK-3245,1 50170U 21125Q   23111.22062853 -.00000340  00000-0 -32581-5 0  9993,2 50170  53.2161 298.3242 0001304  99.0726 261.0414 15.08834540 77554,6917.897,95.438,540.664,538.86,0.0
50170.0,STARLINK-3245,PAYLOAD,2023-04-21 21:11:33,15.08848761,0.0001159,53.2162,295.3499,91.5858,268.5267,0.0002572,3.809e-05,0.0,0 STARLINK-3245,1 50170U 21125Q   23111.88302553  .00003809  00000-0  25720-3 0  9995,2 50170  53.2162 295.3499 0001159  91.5858 268.5267 15.08848761 77656,6917.854,95.437,540.52,538.917,0.0
